{"type": "FeatureCollection", "features": [ {"type": "Feature", "properties": {"norad_id": 37834, "name": "INTELSAT 18 (IS-18)", "group": "intelsat", "lat": 0.008312653133464768, "lon": -28.104096568709743, "alt_km": 35781.13346837491, "timestamp": "2025-12-22T04:03:38.829629+00:00", "meta": {"OBJECT_NAME": "INTELSAT 18 (IS-18)", "OBJECT_ID": "2011-056A", "EPOCH": "2025-12-21T17:28:38.163936", "MEAN_MOTION": 1.0027173, "ECCENTRICITY": 0.0001724, "INCLINATION": 0.0303, "RA_OF_ASC_NODE": 282.0172, "ARG_OF_PERICENTER": 2.46, "MEAN_ANOMALY": 248.2243, "EPHEMERIS_TYPE": 0, "CLASSIFICATION_TYPE": "U", "NORAD_CAT_ID": 37834, "ELEMENT_SET_NO": 999, "REV_AT_EPOCH": 5203, "BSTAR": 0, "MEAN_MOTION_DOT": 7.5e-07, "MEAN_MOTION_DDOT": 0}, "tle": {"line1": "1 37834U 11056A   25355.72821949  .00000075  00000+0  00000+0 0  9990", "line2": "2 37834   0.0303 282.0172 0001724   2.4600 248.2243  1.00271730 52037"}}, "geometry": {"type": "Point", "coordinates": [-28.104096568709743, 0.008312653133464768]}}, {"type": "Feature", "properties": {"norad_id": 38098, "name": "INTELSAT 22 (IS-22)", "group": "intelsat", "lat": -0.030197326081992656, "lon": -136.04764219090066, "alt_km": 35781.761721470524, "timestamp": "2025-12-22T04:03:38.829641+00:00", "meta": {"OBJECT_NAME": "INTELSAT 22 (IS-22)", "OBJECT_ID": "2012-011A", "EPOCH": "2025-12-21T20:20:09.838176", "MEAN_MOTION": 1.00270706, "ECCENTRICITY": 0.0001762, "INCLINATION": 0.0173, "RA_OF_ASC_NODE": 309.7154, "ARG_OF_PERICENTER": 326.0165, "MEAN_ANOMALY": 192.0573, "EPHEMERIS_TYPE": 0, "CLASSIFICATION_TYPE": "U", "NORAD_CAT_ID": 38098, "ELEMENT_SET_NO": 999, "REV_AT_EPOCH": 541, "BSTAR": 0, "MEAN_MOTION_DOT": -3.6e-07, "MEAN_MOTION_DDOT": 0}, "tle": {"line1": "1 38098U 12011A   25355.84733609 -.00000036  00000+0  00000+0 0  9991", "line2": "2 38098   0.0173 309.7154 0001762 326.0165 192.0573  1.00270706  5419"}}, "geometry": {"type": "Point", "coordinates": [-136.04764219090066, -0.030197326081992656]}}, {"type": "Feature", "properties": {"norad_id": 38356, "name": "INTELSAT 19 (IS-19)", "group": "intelsat", "lat": -0.03058725244996096, "lon": -42.0955303750392, "alt_km": 35778.76390021224, "timestamp": "2025-12-22T04:03:38.829653+00:00", "meta": {"OBJECT_NAME": "INTELSAT 19 (IS-19)", "OBJECT_ID": "2012-030A", "EPOCH": "2025-12-21T13:33:38.680128", "MEAN_MOTION": 1.00271321, "ECCENTRICITY": 0.0002756, "INCLINATION": 0.0111, "RA_OF_ASC_NODE": 21.6786, "ARG_OF_PERICENTER": 245.7502, "MEAN_ANOMALY": 192.3636, "EPHEMERIS_TYPE": 0, "CLASSIFICATION_TYPE": "U", "NORAD_CAT_ID": 38356, "ELEMENT_SET_NO": 999, "REV_AT_EPOCH": 4867, "BSTAR": 0, "MEAN_MOTION_DOT": -3.4e-07, "MEAN_MOTION_DDOT": 0}, "tle": {"line1": "1 38356U 12030A   25355.56503102 -.00000034  00000+0  00000+0 0  9999", "line2": "2 38356   0.0111  21.6786 0002756 245.7502 192.3636  1.00271321 48677"}}, "geometry": {"type": "Point", "coordinates": [-42.0955303750392, -0.03058725244996096]}}, {"type": "Feature", "properties": {"norad_id": 38740, "name": "INTELSAT 20 (IS-20)", "group": "intelsat", "lat": -0.0034144319288652736, "lon": -139.60780403890527, "alt_km": 35774.872094814215, "timestamp": "2025-12-22T04:03:38.829665+00:00", "meta": {"OBJECT_NAME": "INTELSAT 20 (IS-20)", "OBJECT_ID": "2012-043A", "EPOCH": "2025-12-21T20:20:00.525120", "MEAN_MOTION": 1.00271371, "ECCENTRICITY": 0.0003413, "INCLINATION": 0.0096, "RA_OF_ASC_NODE": 63.998, "ARG_OF_PERICENTER": 118.5979, "MEAN_ANOMALY": 281.5536, "EPHEMERIS_TYPE": 0, "CLASSIFICATION_TYPE": "U", "NORAD_CAT_ID": 38740, "ELEMENT_SET_NO": 999, "REV_AT_EPOCH": 4897, "BSTAR": 0, "MEAN_MOTION_DOT": -2e-08, "MEAN_MOTION_DDOT": 0}, "tle": {"line1": "1 38740U 12043A   25355.84722830 -.00000002  00000+0  00000+0 0  9997", "line2": "2 38740   0.0096  63.9980 0003413 118.5979 281.5536  1.00271371 48975"}}, "geometry": {"type": "Point", "coordinates": [-139.60780403890527, -0.0034144319288652736]}}, {"type": "Feature", "properties": {"norad_id": 38749, "name": "INTELSAT 21 (IS-21)", "group": "intelsat", "lat": 0.023713609048163987, "lon": 93.88042616486766, "alt_km": 35792.41139815017, "timestamp": "2025-12-22T04:03:38.829677+00:00", "meta": {"OBJECT_NAME": "INTELSAT 21 (IS-21)", "OBJECT_ID": "2012-045A", "EPOCH": "2025-12-21T18:03:20.766816", "MEAN_MOTION": 1.00271778, "ECCENTRICITY": 0.0001514, "INCLINATION": 0.0222, "RA_OF_ASC_NODE": 293.437, "ARG_OF_PERICENTER": 328.6242, "MEAN_ANOMALY": 41.3444, "EPHEMERIS_TYPE": 0, "CLASSIFICATION_TYPE": "U", "NORAD_CAT_ID": 38749, "ELEMENT_SET_NO": 999, "REV_AT_EPOCH": 4874, "BSTAR": 0, "MEAN_MOTION_DOT": -2.62e-06, "MEAN_MOTION_DDOT": 0}, "tle": {"line1": "1 38749U 12045A   25355.75232369 -.00000262  00000+0  00000+0 0  9999", "line2": "2 38749   0.0222 293.4370 0001514 328.6242  41.3444  1.00271778 48741"}}, "geometry": {"type": "Point", "coordinates": [93.88042616486766, 0.023713609048163987]}}, {"type": "Feature", "properties": {"norad_id": 38867, "name": "INTELSAT 23 (IS-23)", "group": "intelsat", "lat": 0.02606818800267444, "lon": 98.90096301072482, "alt_km": 35789.47001027565, "timestamp": "2025-12-22T04:03:38.829688+00:00", "meta": {"OBJECT_NAME": "INTELSAT 23 (IS-23)", "OBJECT_ID": "2012-057A", "EPOCH": "2025-12-21T18:04:50.625408", "MEAN_MOTION": 1.0026909, "ECCENTRICITY": 6.62e-05, "INCLINATION": 0.0181, "RA_OF_ASC_NODE": 69.0922, "ARG_OF_PERICENTER": 232.4659, "MEAN_ANOMALY": 7.241, "EPHEMERIS_TYPE": 0, "CLASSIFICATION_TYPE": "U", "NORAD_CAT_ID": 38867, "ELEMENT_SET_NO": 999, "REV_AT_EPOCH": 4817, "BSTAR": 0, "MEAN_MOTION_DOT": -2.62e-06, "MEAN_MOTION_DDOT": 0}, "tle": {"line1": "1 38867U 12057A   25355.75336372 -.00000262  00000+0  00000+0 0  9992", "line2": "2 38867   0.0181  69.0922 0000662 232.4659   7.2410  1.00269090 48178"}}, "geometry": {"type": "Point", "coordinates": [98.90096301072482, 0.02606818800267444]}}, {"type": "Feature", "properties": {"norad_id": 39360, "name": "FM-6", "group": "intelsat", "lat": 0.0013847481102587315, "lon": 35.694479491588034, "alt_km": 35797.326336900216, "timestamp": "2025-12-22T04:03:38.829700+00:00", "meta": {"OBJECT_NAME": "FM-6", "OBJECT_ID": "2013-058A", "EPOCH": "2025-12-21T17:46:36.443712", "MEAN_MOTION": 1.00268448, "ECCENTRICITY": 0.0003144, "INCLINATION": 0.0115, "RA_OF_ASC_NODE": 61.1402, "ARG_OF_PERICENTER": 116.1064, "MEAN_ANOMALY": 63.8006, "EPHEMERIS_TYPE": 0, "CLASSIFICATION_TYPE": "U", "NORAD_CAT_ID": 39360, "ELEMENT_SET_NO": 999, "REV_AT_EPOCH": 4429, "BSTAR": 0, "MEAN_MOTION_DOT": 6e-08, "MEAN_MOTION_DDOT": 0}, "tle": {"line1": "1 39360U 13058A   25355.74069958  .00000006  00000+0  00000+0 0  9990", "line2": "2 39360   0.0115  61.1402 0003144 116.1064  63.8006  1.00268448 44290"}}, "geometry": {"type": "Point", "coordinates": [35.694479491588034, 0.0013847481102587315]}}, {"type": "Feature", "properties": {"norad_id": 40271, "name": "INTELSAT 30 (IS-30)", "group": "intelsat", "lat": 0.02735665995525383, "lon": 56.82297574332376, "alt_km": 35780.29963918908, "timestamp": "2025-12-22T04:03:38.829711+00:00", "meta": {"OBJECT_NAME": "INTELSAT 30 (IS-30)", "OBJECT_ID": "2014-062A", "EPOCH": "2025-12-21T02:28:25.779360", "MEAN_MOTION": 1.00271873, "ECCENTRICITY": 0.00016539, "INCLINATION": 0.0153, "RA_OF_ASC_NODE": 22.7027, "ARG_OF_PERICENTER": 68.3073, "MEAN_ANOMALY": 300.9758, "EPHEMERIS_TYPE": 0, "CLASSIFICATION_TYPE": "U", "NORAD_CAT_ID": 40271, "ELEMENT_SET_NO": 999, "REV_AT_EPOCH": 500, "BSTAR": 0, "MEAN_MOTION_DOT": -1.28e-06, "MEAN_MOTION_DDOT": 0}, "tle": {"line1": "1 40271U 14062A   25355.10307615 -.00000128  00000+0  00000+0 0  9990", "line2": "2 40271   0.0153  22.7027 0001653  68.3073 300.9758  1.00271873  5003"}}, "geometry": {"type": "Point", "coordinates": [56.82297574332376, 0.02735665995525383]}}, {"type": "Feature", "properties": {"norad_id": 40333, "name": "DIRECTV 14", "group": "intelsat", "lat": 0.014878458030840917, "lon": 52.65744363424818, "alt_km": 35786.1806175874, "timestamp": "2025-12-22T04:03:38.829722+00:00", "meta": {"OBJECT_NAME": "DIRECTV 14", "OBJECT_ID": "2014-078B", "EPOCH": "2025-12-21T12:50:45.200832", "MEAN_MOTION": 1.00270513, "ECCENTRICITY": 2.66e-05, "INCLINATION": 0.0068, "RA_OF_ASC_NODE": 38.728, "ARG_OF_PERICENTER": 90.1802, "MEAN_ANOMALY": 54.9144, "EPHEMERIS_TYPE": 0, "CLASSIFICATION_TYPE": "U", "NORAD_CAT_ID": 40333, "ELEMENT_SET_NO": 999, "REV_AT_EPOCH": 4026, "BSTAR": 0, "MEAN_MOTION_DOT": -1.03e-06, "MEAN_MOTION_DDOT": 0}, "tle": {"line1": "1 40333U 14078B   25355.53524538 -.00000103  00000+0  00000+0 0  9991", "line2": "2 40333   0.0068  38.7280 0000266  90.1802  54.9144  1.00270513 40269"}}, "geometry": {"type": "Point", "coordinates": [52.65744363424818, 0.014878458030840917]}}, {"type": "Feature", "properties": {"norad_id": 40663, "name": "DIRECTV 15", "group": "intelsat", "lat": 0.029572540712547283, "lon": 48.99163654383139, "alt_km": 35787.618488904074, "timestamp": "2025-12-22T04:03:38.829734+00:00", "meta": {"OBJECT_NAME": "DIRECTV 15", "OBJECT_ID": "2015-026A", "EPOCH": "2025-12-21T16:08:00.885408", "MEAN_MOTION": 1.00268252, "ECCENTRICITY": 5.12e-05, "INCLINATION": 0.024, "RA_OF_ASC_NODE": 17.3667, "ARG_OF_PERICENTER": 136.4685, "MEAN_ANOMALY": 75.7781, "EPHEMERIS_TYPE": 0, "CLASSIFICATION_TYPE": "U", "NORAD_CAT_ID": 40663, "ELEMENT_SET_NO": 999, "REV_AT_EPOCH": 3868, "BSTAR": 0, "MEAN_MOTION_DOT": 0, "MEAN_MOTION_DDOT": 0}, "tle": {"line1": "1 40663U 15026A   25355.67223247  .00000000  00000+0  00000+0 0  9994", "line2": "2 40663   0.0240  17.3667 0000512 136.4685  75.7781  1.00268252 38684"}}, "geometry": {"type": "Point", "coordinates": [48.99163654383139, 0.029572540712547283]}}]}